$$SOE
2461302.500000000, A.D. 2026-Sep-19 00:00:00.0000, 7.000942974442068E+09, 2.362858153004909E+09, -2.212626636195519E+08,
2461309.500000000, A.D. 2026-Sep-26 00:00:00.0000, 7.000316280580427E+09, 2.364982071290749E+09, -2.221834867802241E+08,
2461316.500000000, A.D. 2026-Oct-03 00:00:00.0000, 6.999688769294526E+09, 2.367105651145412E+09, -2.231042830685958E+08,
2461323.500000000, A.D. 2026-Oct-10 00:00:00.0000, 6.999060440401537E+09, 2.369228890211256E+09, -2.240250523377228E+08,
2461330.500000000, A.D. 2026-Oct-17 00:00:00.0000, 6.998431294099732E+09, 2.371351785995661E+09, -2.249457944644933E+08,
2461337.500000000, A.D. 2026-Oct-24 00:00:00.0000, 6.997801330906654E+09, 2.373474335844086E+09, -2.258665093518199E+08,
2461344.500000000, A.D. 2026-Oct-31 00:00:00.0000, 6.997170551685472E+09, 2.375596536750375E+09, -2.267871969528651E+08,
2461351.500000000, A.D. 2026-Nov-07 00:00:00.0000, 6.996538958098639E+09, 2.377718385078456E+09, -2.277078573421872E+08,
2461358.500000000, A.D. 2026-Nov-14 00:00:00.0000, 6.995906553689695E+09, 2.379839877082810E+09, -2.286284907794977E+08,
2461365.500000000, A.D. 2026-Nov-21 00:00:00.0000, 6.995273343781467E+09, 2.381961010909609E+09, -2.295490975439111E+08,
2461372.500000000, A.D. 2026-Nov-28 00:00:00.0000, 6.994639333192579E+09, 2.384081787070459E+09, -2.304696776927072E+08,
2461379.500000000, A.D. 2026-Dec-05 00:00:00.0000, 6.994004525391817E+09, 2.386202206732409E+09, -2.313902311299331E+08,
2461386.500000000, A.D. 2026-Dec-12 00:00:00.0000, 6.993368923255250E+09, 2.388322270935219E+09, -2.323107577454460E+08,
2461393.500000000, A.D. 2026-Dec-19 00:00:00.0000, 6.992732529538878E+09, 2.390441980742305E+09, -2.332312574505122E+08,
2461400.500000000, A.D. 2026-Dec-26 00:00:00.0000, 6.992095346924335E+09, 2.392561337457294E+09, -2.341517301676252E+08,
2461407.500000000, A.D. 2027-Jan-02 00:00:00.0000, 6.991457377913263E+09, 2.394680342715151E+09, -2.350721758152672E+08,
2461414.500000000, A.D. 2027-Jan-09 00:00:00.0000, 6.990818624686651E+09, 2.396798998467862E+09, -2.359925942965667E+08,
2461421.500000000, A.D. 2027-Jan-16 00:00:00.0000, 6.990179088963467E+09, 2.398917306873302E+09, -2.369129854943050E+08,
2461428.500000000, A.D. 2027-Jan-23 00:00:00.0000, 6.989538771903125E+09, 2.401035270047430E+09, -2.378333492796977E+08,
2461435.500000000, A.D. 2027-Jan-30 00:00:00.0000, 6.988897674237938E+09, 2.403152889631847E+09, -2.387536855561143E+08,
2461442.500000000, A.D. 2027-Feb-06 00:00:00.0000, 6.988255797058641E+09, 2.405270166516603E+09, -2.396739943489903E+08,
2461449.500000000, A.D. 2027-Feb-13 00:00:00.0000, 6.987613142791103E+09, 2.407387101937781E+09, -2.405942758001722E+08,
2461456.500000000, A.D. 2027-Feb-20 00:00:00.0000, 6.986969713999033E+09, 2.409503699158775E+09, -2.415145299146990E+08,
2461463.500000000, A.D. 2027-Feb-27 00:00:00.0000, 6.986325511407662E+09, 2.411619962521540E+09, -2.424347564508930E+08,
2461470.500000000, A.D. 2027-Mar-06 00:00:00.0000, 6.985680534165888E+09, 2.413735895790380E+09, -2.433549550736409E+08,
2461477.500000000, A.D. 2027-Mar-13 00:00:00.0000, 6.985034780746319E+09, 2.415851501837701E+09, -2.442751254568100E+08,
2461484.500000000, A.D. 2027-Mar-20 00:00:00.0000, 6.984388249353703E+09, 2.417966782837130E+09, -2.451952672996010E+08,
2461491.500000000, A.D. 2027-Mar-27 00:00:00.0000, 6.983740938043661E+09, 2.420081740415015E+09, -2.461153803203682E+08,
2461498.500000000, A.D. 2027-Apr-03 00:00:00.0000, 6.983092844754655E+09, 2.422196375712602E+09, -2.470354642505236E+08,
2461505.500000000, A.D. 2027-Apr-10 00:00:00.0000, 6.982443967314402E+09, 2.424310689381923E+09, -2.479555188323339E+08,
2461512.500000000, A.D. 2027-Apr-17 00:00:00.0000, 6.981794303442839E+09, 2.426424681501114E+09, -2.488755438238509E+08,
2461519.500000000, A.D. 2027-Apr-24 00:00:00.0000, 6.981143850830838E+09, 2.428538351346976E+09, -2.497955390233445E+08,
2461526.500000000, A.D. 2027-May-01 00:00:00.0000, 6.980492607594296E+09, 2.430651697052608E+09, -2.507155043384538E+08,
2461533.500000000, A.D. 2027-May-08 00:00:00.0000, 6.979840573411004E+09, 2.432764715898501E+09, -2.516354398670784E+08,
2461540.500000000, A.D. 2027-May-15 00:00:00.0000, 6.979187749843444E+09, 2.434877406190512E+09, -2.525553457747778E+08,
2461547.500000000, A.D. 2027-May-22 00:00:00.0000, 6.978534138283603E+09, 2.436989768133146E+09, -2.534752220370189E+08,
2461554.500000000, A.D. 2027-May-29 00:00:00.0000, 6.977879738875763E+09, 2.439101802229865E+09, -2.543950684739821E+08,
2461561.500000000, A.D. 2027-Jun-05 00:00:00.0000, 6.977224551302113E+09, 2.441213508342176E+09, -2.553148849030530E+08,
2461568.500000000, A.D. 2027-Jun-12 00:00:00.0000, 6.976568575423619E+09, 2.443324885839311E+09, -2.562346711894815E+08,
2461575.500000000, A.D. 2027-Jun-19 00:00:00.0000, 6.975911811445172E+09, 2.445435933903462E+09, -2.571544272411096E+08,
2461582.500000000, A.D. 2027-Jun-26 00:00:00.0000, 6.975254259884402E+09, 2.447546651729276E+09, -2.580741529939742E+08,
2461589.500000000, A.D. 2027-Jul-03 00:00:00.0000, 6.974595921476294E+09, 2.449657038625900E+09, -2.589938484000105E+08,
2461596.500000000, A.D. 2027-Jul-10 00:00:00.0000, 6.973936797050457E+09, 2.451767094030301E+09, -2.599135134192839E+08,
2461603.500000000, A.D. 2027-Jul-17 00:00:00.0000, 6.973276887417387E+09, 2.453876817392995E+09, -2.608331480230093E+08,
2461610.500000000, A.D. 2027-Jul-24 00:00:00.0000, 6.972616193420135E+09, 2.455986207873393E+09, -2.617527522265909E+08,
2461617.500000000, A.D. 2027-Jul-31 00:00:00.0000, 6.971954716562853E+09, 2.458095264080257E+09, -2.626723261709450E+08,
2461624.500000000, A.D. 2027-Aug-07 00:00:00.0000, 6.971292460015452E+09, 2.460203985009021E+09, -2.635918701393899E+08,
2461631.500000000, A.D. 2027-Aug-14 00:00:00.0000, 6.970629427693271E+09, 2.462312371922632E+09, -2.645113843196453E+08,
2461638.500000000, A.D. 2027-Aug-21 00:00:00.0000, 6.969965622029980E+09, 2.464420427811764E+09, -2.654308686425387E+08,
2461645.500000000, A.D. 2027-Aug-28 00:00:00.0000, 6.969301043874770E+09, 2.466528155637600E+09, -2.663503229137979E+08,
2461652.500000000, A.D. 2027-Sep-04 00:00:00.0000, 6.968635693332691E+09, 2.468635557859487E+09, -2.672697469262300E+08,
2461659.500000000, A.D. 2027-Sep-11 00:00:00.0000, 6.967969570152818E+09, 2.470742636586184E+09, -2.681891404785525E+08,
2461666.500000000, A.D. 2027-Sep-18 00:00:00.0000, 6.967302673797425E+09, 2.472849393700593E+09, -2.691085033664758E+08,
2461673.500000000, A.D. 2027-Sep-25 00:00:00.0000, 6.966635003421047E+09, 2.474955830880610E+09, -2.700278353736290E+08,
2461680.500000000, A.D. 2027-Oct-02 00:00:00.0000, 6.965966557834467E+09, 2.477061949543968E+09, -2.709471362672316E+08,
2461687.500000000, A.D. 2027-Oct-09 00:00:00.0000, 6.965297335476183E+09, 2.479167750712976E+09, -2.718664058011894E+08,
2461694.500000000, A.D. 2027-Oct-16 00:00:00.0000, 6.964627334454577E+09, 2.481273234744696E+09, -2.727856437371207E+08,
2461701.500000000, A.D. 2027-Oct-23 00:00:00.0000, 6.963956552920829E+09, 2.483378400921255E+09, -2.737048499078013E+08,
2461708.500000000, A.D. 2027-Oct-30 00:00:00.0000, 6.963284990147411E+09, 2.485483247510982E+09, -2.746240243076591E+08,
2461715.500000000, A.D. 2027-Nov-06 00:00:00.0000, 6.962612647148837E+09, 2.487587773428767E+09, -2.755431670115186E+08,
2461722.500000000, A.D. 2027-Nov-13 00:00:00.0000, 6.961939524859314E+09, 2.489691979419703E+09, -2.764622779092411E+08,
2461729.500000000, A.D. 2027-Nov-20 00:00:00.0000, 6.961265622769199E+09, 2.491795866580256E+09, -2.773813567010622E+08,
2461736.500000000, A.D. 2027-Nov-27 00:00:00.0000, 6.960590939637897E+09, 2.493899435181589E+09, -2.783004030596882E+08,
2461743.500000000, A.D. 2027-Dec-04 00:00:00.0000, 6.959915474259603E+09, 2.496002684709011E+09, -2.792194166988374E+08,
2461750.500000000, A.D. 2027-Dec-11 00:00:00.0000, 6.959239225731374E+09, 2.498105614153705E+09, -2.801383973764598E+08,
2461757.500000000, A.D. 2027-Dec-18 00:00:00.0000, 6.958562193498491E+09, 2.500208222217682E+09, -2.810573448854817E+08,
2461764.500000000, A.D. 2027-Dec-25 00:00:00.0000, 6.957884377329088E+09, 2.502310507429950E+09, -2.819762590461116E+08,
2461771.500000000, A.D. 2028-Jan-01 00:00:00.0000, 6.957205777259479E+09, 2.504412468188551E+09, -2.828951397022047E+08,
$$EOE